{"type": "FeatureCollection", "features": [{"type": "Feature", "geometry": {"type": "Point", "coordinates": [102.40917345491214, -4.048607996000844]}, "properties": {"id": 2359, "jenis": "durian"}}, {"type": "Feature", "geometry": {"type": "Point", "coordinates": [102.40917345491214, -4.048652799677058]}, "properties": {"id": 2360, "jenis": "durian"}}, {"type": "Feature", "geometry": {"type": "Point", "coordinates": [102.40921837067634, -4.048473584957317]}, "properties": {"id": 2436, "jenis": "durian"}}, {"type": "Feature", "geometry": {"type": "Point", "coordinates": [102.40921837067634, -4.048518388640972]}, "properties": {"id": 2437, "jenis": "durian"}}, {"type": "Feature", "geometry": {"type": "Point", "coordinates": [102.40921837067634, -4.048563192322147]}, "properties": {"id": 2438, "jenis": "durian"}}, {"type": "Feature", "geometry": {"type": "Point", "coordinates": [102.40921837067634, -4.048607996000844]}, "properties": {"id": 2439, "jenis": "durian"}}, {"type": "Feature", "geometry": {"type": "Point", "coordinates": [102.40921837067634, -4.048652799677058]}, "properties": {"id": 2440, "jenis": "durian"}}, {"type": "Feature", "geometry": {"type": "Point", "coordinates": [102.40921837067634, -4.048697603350795]}, "properties": {"id": 2441, "jenis": "durian"}}, {"type": "Feature", "geometry": {"type": "Point", "coordinates": [102.40926328644053, -4.048383977582567]}, "properties": {"id": 2514, "jenis": "durian"}}, {"type": "Feature", "geometry": {"type": "Point", "coordinates": [102.40926328644053, -4.048428781271182]}, "properties": {"id": 2515, "jenis": "durian"}}, {"type": "Feature", "geometry": {"type": "Point", "coordinates": [102.40926328644053, -4.048473584957317]}, "properties": {"id": 2516, "jenis": "durian"}}, {"type": "Feature", "geometry": {"type": "Point", "coordinates": [102.40926328644053, -4.048518388640972]}, "properties": {"id": 2517, "jenis": "durian"}}, {"type": "Feature", "geometry": {"type": "Point", "coordinates": [102.40926328644053, -4.048563192322147]}, "properties": {"id": 2518, "jenis": "durian"}}, {"type": "Feature", "geometry": {"type": "Point", "coordinates": [102.40926328644053, -4.048607996000844]}, "properties": {"id": 2519, "jenis": "durian"}}, {"type": "Feature", "geometry": {"type": "Point", "coordinates": [102.40926328644053, -4.048652799677058]}, "properties": {"id": 2520, "jenis": "durian"}}, {"type": "Feature", "geometry": {"type": "Point", "coordinates": [102.40926328644053, -4.048697603350795]}, "properties": {"id": 2521, "jenis": "durian"}}, {"type": "Feature", "geometry": {"type": "Point", "coordinates": [102.40926328644053, -4.048742407022051]}, "properties": {"id": 2522, "jenis": "durian"}}, {"type": "Feature", "geometry": {"type": "Point", "coordinates": [102.40926328644053, -4.048787210690827]}, "properties": {"id": 2523, "jenis": "durian"}}, {"type": "Feature", "geometry": {"type": "Point", "coordinates": [102.40926328644053, -4.048966425341134]}, "properties": {"id": 2527, "jenis": "durian"}}, {"type": "Feature", "geometry": {"type": "Point", "coordinates": [102.40926328644053, -4.049011228997511]}, "properties": {"id": 2528, "jenis": "durian"}}, {"type": "Feature", "geometry": {"type": "Point", "coordinates": [102.40930820220474, -4.048204762803313]}, "properties": {"id": 2590, "jenis": "durian"}}, {"type": "Feature", "geometry": {"type": "Point", "coordinates": [102.40930820220474, -4.048249566501847]}, "properties": {"id": 2591, "jenis": "durian"}}, {"type": "Feature", "geometry": {"type": "Point", "coordinates": [102.40930820220474, -4.048294370197899]}, "properties": {"id": 2592, "jenis": "durian"}}, {"type": "Feature", "geometry": {"type": "Point", "coordinates": [102.40930820220474, -4.048339173891473]}, "properties": {"id": 2593, "jenis": "durian"}}, {"type": "Feature", "geometry": {"type": "Point", "coordinates": [102.40930820220474, -4.048383977582567]}, "properties": {"id": 2594, "jenis": "durian"}}, {"type": "Feature", "geometry": {"type": "Point", "coordinates": [102.40930820220474, -4.048428781271182]}, "properties": {"id": 2595, "jenis": "durian"}}, {"type": "Feature", "geometry": {"type": "Point", "coordinates": [102.40930820220474, -4.048473584957317]}, "properties": {"id": 2596, "jenis": "durian"}}, {"type": "Feature", "geometry": {"type": "Point", "coordinates": [102.40930820220474, -4.048518388640972]}, "properties": {"id": 2597, "jenis": "durian"}}, {"type": "Feature", "geometry": {"type": "Point", "coordinates": [102.40930820220474, -4.048563192322147]}, "properties": {"id": 2598, "jenis": "durian"}}, {"type": "Feature", "geometry": {"type": "Point", "coordinates": [102.40930820220474, -4.048607996000844]}, "properties": {"id": 2599, "jenis": "durian"}}, {"type": "Feature", "geometry": {"type": "Point", "coordinates": [102.40930820220474, -4.048652799677058]}, "properties": {"id": 2600, "jenis": "durian"}}, {"type": "Feature", "geometry": {"type": "Point", "coordinates": [102.40930820220474, -4.048697603350795]}, "properties": {"id": 2601, "jenis": "durian"}}, {"type": "Feature", "geometry": {"type": "Point", "coordinates": [102.40930820220474, -4.048742407022051]}, "properties": {"id": 2602, "jenis": "durian"}}, {"type": "Feature", "geometry": {"type": "Point", "coordinates": [102.40930820220474, -4.048787210690827]}, "properties": {"id": 2603, "jenis": "durian"}}, {"type": "Feature", "geometry": {"type": "Point", "coordinates": [102.40930820220474, -4.048832014357124]}, "properties": {"id": 2604, "jenis": "durian"}}, {"type": "Feature", "geometry": {"type": "Point", "coordinates": [102.40930820220474, -4.048876818020941]}, "properties": {"id": 2605, "jenis": "durian"}}, {"type": "Feature", "geometry": {"type": "Point", "coordinates": [102.40930820220474, -4.048921621682278]}, "properties": {"id": 2606, "jenis": "durian"}}, {"type": "Feature", "geometry": {"type": "Point", "coordinates": [102.40930820220474, -4.048966425341134]}, "properties": {"id": 2607, "jenis": "durian"}}, {"type": "Feature", "geometry": {"type": "Point", "coordinates": [102.40930820220474, -4.049011228997511]}, "properties": {"id": 2608, "jenis": "durian"}}, {"type": "Feature", "geometry": {"type": "Point", "coordinates": [102.40930820220474, -4.049056032651407]}, "properties": {"id": 2609, "jenis": "durian"}}, {"type": "Feature", "geometry": {"type": "Point", "coordinates": [102.40935311796895, -4.04771192195581]}, "properties": {"id": 2659, "jenis": "durian"}}, {"type": "Feature", "geometry": {"type": "Point", "coordinates": [102.40935311796895, -4.047756725681617]}, "properties": {"id": 2660, "jenis": "durian"}}, {"type": "Feature", "geometry": {"type": "Point", "coordinates": [102.40935311796895, -4.047801529404944]}, "properties": {"id": 2661, "jenis": "durian"}}, {"type": "Feature", "geometry": {"type": "Point", "coordinates": [102.40935311796895, -4.047846333125791]}, "properties": {"id": 2662, "jenis": "durian"}}, {"type": "Feature", "geometry": {"type": "Point", "coordinates": [102.40935311796895, -4.047891136844158]}, "properties": {"id": 2663, "jenis": "durian"}}, {"type": "Feature", "geometry": {"type": "Point", "coordinates": [102.40935311796895, -4.047935940560048]}, "properties": {"id": 2664, "jenis": "durian"}}, {"type": "Feature", "geometry": {"type": "Point", "coordinates": [102.40935311796895, -4.047980744273457]}, "properties": {"id": 2665, "jenis": "durian"}}, {"type": "Feature", "geometry": {"type": "Point", "coordinates": [102.40935311796895, -4.048025547984388]}, "properties": {"id": 2666, "jenis": "durian"}}, {"type": "Feature", "geometry": {"type": "Point", "coordinates": [102.40935311796895, -4.048070351692839]}, "properties": {"id": 2667, "jenis": "durian"}}, {"type": "Feature", "geometry": {"type": "Point", "coordinates": [102.40935311796895, -4.04811515539881]}, "properties": {"id": 2668, "jenis": "durian"}}, {"type": "Feature", "geometry": {"type": "Point", "coordinates": [102.40935311796895, -4.048159959102302]}, "properties": {"id": 2669, "jenis": "durian"}}, {"type": "Feature", "geometry": {"type": "Point", "coordinates": [102.40935311796895, -4.048204762803313]}, "properties": {"id": 2670, "jenis": "durian"}}, {"type": "Feature", "geometry": {"type": "Point", "coordinates": [102.40935311796895, -4.048249566501847]}, "properties": {"id": 2671, "jenis": "durian"}}, {"type": "Feature", "geometry": {"type": "Point", "coordinates": [102.40935311796895, -4.048294370197899]}, "properties": {"id": 2672, "jenis": "durian"}}, {"type": "Feature", "geometry": {"type": "Point", "coordinates": [102.40935311796895, -4.048339173891473]}, "properties": {"id": 2673, "jenis": "durian"}}, {"type": "Feature", "geometry": {"type": "Point", "coordinates": [102.40935311796895, -4.048383977582567]}, "properties": {"id": 2674, "jenis": "durian"}}, {"type": "Feature", "geometry": {"type": "Point", "coordinates": [102.40935311796895, -4.048428781271182]}, "properties": {"id": 2675, "jenis": "durian"}}, {"type": "Feature", "geometry": {"type": "Point", "coordinates": [102.40935311796895, -4.048473584957317]}, "properties": {"id": 2676, "jenis": "durian"}}, {"type": "Feature", "geometry": {"type": "Point", "coordinates": [102.40935311796895, -4.048518388640972]}, "properties": {"id": 2677, "jenis": "durian"}}, {"type": "Feature", "geometry": {"type": "Point", "coordinates": [102.40935311796895, -4.048563192322147]}, "properties": {"id": 2678, "jenis": "durian"}}, {"type": "Feature", "geometry": {"type": "Point", "coordinates": [102.40935311796895, -4.048607996000844]}, "properties": {"id": 2679, "jenis": "durian"}}, {"type": "Feature", "geometry": {"type": "Point", "coordinates": [102.40935311796895, -4.048652799677058]}, "properties": {"id": 2680, "jenis": "durian"}}, {"type": "Feature", "geometry": {"type": "Point", "coordinates": [102.40935311796895, -4.048697603350795]}, "properties": {"id": 2681, "jenis": "durian"}}, {"type": "Feature", "geometry": {"type": "Point", "coordinates": [102.40935311796895, -4.048742407022051]}, "properties": {"id": 2682, "jenis": "durian"}}, {"type": "Feature", "geometry": {"type": "Point", "coordinates": [102.40935311796895, -4.048787210690827]}, "properties": {"id": 2683, "jenis": "durian"}}, {"type": "Feature", "geometry": {"type": "Point", "coordinates": [102.40935311796895, -4.048832014357124]}, "properties": {"id": 2684, "jenis": "durian"}}, {"type": "Feature", "geometry": {"type": "Point", "coordinates": [102.40935311796895, -4.048876818020941]}, "properties": {"id": 2685, "jenis": "durian"}}, {"type": "Feature", "geometry": {"type": "Point", "coordinates": [102.40935311796895, -4.048921621682278]}, "properties": {"id": 2686, "jenis": "durian"}}, {"type": "Feature", "geometry": {"type": "Point", "coordinates": [102.40935311796895, -4.048966425341134]}, "properties": {"id": 2687, "jenis": "durian"}}, {"type": "Feature", "geometry": {"type": "Point", "coordinates": [102.40935311796895, -4.049011228997511]}, "properties": {"id": 2688, "jenis": "durian"}}, {"type": "Feature", "geometry": {"type": "Point", "coordinates": [102.40935311796895, -4.049056032651407]}, "properties": {"id": 2689, "jenis": "durian"}}, {"type": "Feature", "geometry": {"type": "Point", "coordinates": [102.40935311796895, -4.049100836302825]}, "properties": {"id": 2690, "jenis": "durian"}}, {"type": "Feature", "geometry": {"type": "Point", "coordinates": [102.40939803373315, -4.04771192195581]}, "properties": {"id": 2739, "jenis": "durian"}}, {"type": "Feature", "geometry": {"type": "Point", "coordinates": [102.40939803373315, -4.047756725681617]}, "properties": {"id": 2740, "jenis": "durian"}}, {"type": "Feature", "geometry": {"type": "Point", "coordinates": [102.40939803373315, -4.047801529404944]}, "properties": {"id": 2741, "jenis": "durian"}}, {"type": "Feature", "geometry": {"type": "Point", "coordinates": [102.40939803373315, -4.047846333125791]}, "properties": {"id": 2742, "jenis": "durian"}}, {"type": "Feature", "geometry": {"type": "Point", "coordinates": [102.40939803373315, -4.047891136844158]}, "properties": {"id": 2743, "jenis": "durian"}}, {"type": "Feature", "geometry": {"type": "Point", "coordinates": [102.40939803373315, -4.047935940560048]}, "properties": {"id": 2744, "jenis": "durian"}}, {"type": "Feature", "geometry": {"type": "Point", "coordinates": [102.40939803373315, -4.047980744273457]}, "properties": {"id": 2745, "jenis": "durian"}}, {"type": "Feature", "geometry": {"type": "Point", "coordinates": [102.40939803373315, -4.048025547984388]}, "properties": {"id": 2746, "jenis": "durian"}}, {"type": "Feature", "geometry": {"type": "Point", "coordinates": [102.40939803373315, -4.048070351692839]}, "properties": {"id": 2747, "jenis": "durian"}}, {"type": "Feature", "geometry": {"type": "Point", "coordinates": [102.40939803373315, -4.04811515539881]}, "properties": {"id": 2748, "jenis": "durian"}}, {"type": "Feature", "geometry": {"type": "Point", "coordinates": [102.40939803373315, -4.048159959102302]}, "properties": {"id": 2749, "jenis": "durian"}}, {"type": "Feature", "geometry": {"type": "Point", "coordinates": [102.40939803373315, -4.048204762803313]}, "properties": {"id": 2750, "jenis": "durian"}}, {"type": "Feature", "geometry": {"type": "Point", "coordinates": [102.40939803373315, -4.048249566501847]}, "properties": {"id": 2751, "jenis": "durian"}}, {"type": "Feature", "geometry": {"type": "Point", "coordinates": [102.40939803373315, -4.048294370197899]}, "properties": {"id": 2752, "jenis": "durian"}}, {"type": "Feature", "geometry": {"type": "Point", "coordinates": [102.40939803373315, -4.048339173891473]}, "properties": {"id": 2753, "jenis": "durian"}}, {"type": "Feature", "geometry": {"type": "Point", "coordinates": [102.40939803373315, -4.048383977582567]}, "properties": {"id": 2754, "jenis": "durian"}}, {"type": "Feature", "geometry": {"type": "Point", "coordinates": [102.40939803373315, -4.048428781271182]}, "properties": {"id": 2755, "jenis": "durian"}}, {"type": "Feature", "geometry": {"type": "Point", "coordinates": [102.40939803373315, -4.048473584957317]}, "properties": {"id": 2756, "jenis": "durian"}}, {"type": "Feature", "geometry": {"type": "Point", "coordinates": [102.40939803373315, -4.048518388640972]}, "properties": {"id": 2757, "jenis": "durian"}}, {"type": "Feature", "geometry": {"type": "Point", "coordinates": [102.40939803373315, -4.048563192322147]}, "properties": {"id": 2758, "jenis": "durian"}}, {"type": "Feature", "geometry": {"type": "Point", "coordinates": [102.40939803373315, -4.048607996000844]}, "properties": {"id": 2759, "jenis": "durian"}}, {"type": "Feature", "geometry": {"type": "Point", "coordinates": [102.40939803373315, -4.048652799677058]}, "properties": {"id": 2760, "jenis": "durian"}}, {"type": "Feature", "geometry": {"type": "Point", "coordinates": [102.40939803373315, -4.048697603350795]}, "properties": {"id": 2761, "jenis": "durian"}}, {"type": "Feature", "geometry": {"type": "Point", "coordinates": [102.40939803373315, -4.048742407022051]}, "properties": {"id": 2762, "jenis": "durian"}}, {"type": "Feature", "geometry": {"type": "Point", "coordinates": [102.40939803373315, -4.048787210690827]}, "properties": {"id": 2763, "jenis": "durian"}}, {"type": "Feature", "geometry": {"type": "Point", "coordinates": [102.40939803373315, -4.048832014357124]}, "properties": {"id": 2764, "jenis": "durian"}}, {"type": "Feature", "geometry": {"type": "Point", "coordinates": [102.40939803373315, -4.048876818020941]}, "properties": {"id": 2765, "jenis": "durian"}}, {"type": "Feature", "geometry": {"type": "Point", "coordinates": [102.40939803373315, -4.048921621682278]}, "properties": {"id": 2766, "jenis": "durian"}}, {"type": "Feature", "geometry": {"type": "Point", "coordinates": [102.40939803373315, -4.048966425341134]}, "properties": {"id": 2767, "jenis": "durian"}}, {"type": "Feature", "geometry": {"type": "Point", "coordinates": [102.40939803373315, -4.049011228997511]}, "properties": {"id": 2768, "jenis": "durian"}}, {"type": "Feature", "geometry": {"type": "Point", "coordinates": [102.40939803373315, -4.049056032651407]}, "properties": {"id": 2769, "jenis": "durian"}}, {"type": "Feature", "geometry": {"type": "Point", "coordinates": [102.40939803373315, -4.049100836302825]}, "properties": {"id": 2770, "jenis": "durian"}}, {"type": "Feature", "geometry": {"type": "Point", "coordinates": [102.40944294949736, -4.047801529404944]}, "properties": {"id": 2821, "jenis": "durian"}}, {"type": "Feature", "geometry": {"type": "Point", "coordinates": [102.40944294949736, -4.047846333125791]}, "properties": {"id": 2822, "jenis": "durian"}}, {"type": "Feature", "geometry": {"type": "Point", "coordinates": [102.40944294949736, -4.047891136844158]}, "properties": {"id": 2823, "jenis": "durian"}}, {"type": "Feature", "geometry": {"type": "Point", "coordinates": [102.40944294949736, -4.047935940560048]}, "properties": {"id": 2824, "jenis": "durian"}}, {"type": "Feature", "geometry": {"type": "Point", "coordinates": [102.40944294949736, -4.047980744273457]}, "properties": {"id": 2825, "jenis": "durian"}}, {"type": "Feature", "geometry": {"type": "Point", "coordinates": [102.40944294949736, -4.048025547984388]}, "properties": {"id": 2826, "jenis": "durian"}}, {"type": "Feature", "geometry": {"type": "Point", "coordinates": [102.40944294949736, -4.048070351692839]}, "properties": {"id": 2827, "jenis": "durian"}}, {"type": "Feature", "geometry": {"type": "Point", "coordinates": [102.40944294949736, -4.04811515539881]}, "properties": {"id": 2828, "jenis": "durian"}}, {"type": "Feature", "geometry": {"type": "Point", "coordinates": [102.40944294949736, -4.048159959102302]}, "properties": {"id": 2829, "jenis": "durian"}}, {"type": "Feature", "geometry": {"type": "Point", "coordinates": [102.40944294949736, -4.048204762803313]}, "properties": {"id": 2830, "jenis": "durian"}}, {"type": "Feature", "geometry": {"type": "Point", "coordinates": [102.40944294949736, -4.048249566501847]}, "properties": {"id": 2831, "jenis": "durian"}}, {"type": "Feature", "geometry": {"type": "Point", "coordinates": [102.40944294949736, -4.048294370197899]}, "properties": {"id": 2832, "jenis": "durian"}}, {"type": "Feature", "geometry": {"type": "Point", "coordinates": [102.40944294949736, -4.048339173891473]}, "properties": {"id": 2833, "jenis": "durian"}}, {"type": "Feature", "geometry": {"type": "Point", "coordinates": [102.40944294949736, -4.048383977582567]}, "properties": {"id": 2834, "jenis": "durian"}}, {"type": "Feature", "geometry": {"type": "Point", "coordinates": [102.40944294949736, -4.048428781271182]}, "properties": {"id": 2835, "jenis": "durian"}}, {"type": "Feature", "geometry": {"type": "Point", "coordinates": [102.40944294949736, -4.048473584957317]}, "properties": {"id": 2836, "jenis": "durian"}}, {"type": "Feature", "geometry": {"type": "Point", "coordinates": [102.40944294949736, -4.048518388640972]}, "properties": {"id": 2837, "jenis": "durian"}}, {"type": "Feature", "geometry": {"type": "Point", "coordinates": [102.40944294949736, -4.048563192322147]}, "properties": {"id": 2838, "jenis": "durian"}}, {"type": "Feature", "geometry": {"type": "Point", "coordinates": [102.40944294949736, -4.048607996000844]}, "properties": {"id": 2839, "jenis": "durian"}}, {"type": "Feature", "geometry": {"type": "Point", "coordinates": [102.40944294949736, -4.048652799677058]}, "properties": {"id": 2840, "jenis": "durian"}}, {"type": "Feature", "geometry": {"type": "Point", "coordinates": [102.40944294949736, -4.048697603350795]}, "properties": {"id": 2841, "jenis": "durian"}}, {"type": "Feature", "geometry": {"type": "Point", "coordinates": [102.40944294949736, -4.048742407022051]}, "properties": {"id": 2842, "jenis": "durian"}}, {"type": "Feature", "geometry": {"type": "Point", "coordinates": [102.40944294949736, -4.048787210690827]}, "properties": {"id": 2843, "jenis": "durian"}}, {"type": "Feature", "geometry": {"type": "Point", "coordinates": [102.40944294949736, -4.048832014357124]}, "properties": {"id": 2844, "jenis": "durian"}}, {"type": "Feature", "geometry": {"type": "Point", "coordinates": [102.40944294949736, -4.048876818020941]}, "properties": {"id": 2845, "jenis": "durian"}}, {"type": "Feature", "geometry": {"type": "Point", "coordinates": [102.40944294949736, -4.048921621682278]}, "properties": {"id": 2846, "jenis": "durian"}}, {"type": "Feature", "geometry": {"type": "Point", "coordinates": [102.40944294949736, -4.048966425341134]}, "properties": {"id": 2847, "jenis": "durian"}}, {"type": "Feature", "geometry": {"type": "Point", "coordinates": [102.40944294949736, -4.049011228997511]}, "properties": {"id": 2848, "jenis": "durian"}}, {"type": "Feature", "geometry": {"type": "Point", "coordinates": [102.40948786526157, -4.047891136844158]}, "properties": {"id": 2903, "jenis": "durian"}}, {"type": "Feature", "geometry": {"type": "Point", "coordinates": [102.40948786526157, -4.047935940560048]}, "properties": {"id": 2904, "jenis": "durian"}}, {"type": "Feature", "geometry": {"type": "Point", "coordinates": [102.40948786526157, -4.047980744273457]}, "properties": {"id": 2905, "jenis": "durian"}}, {"type": "Feature", "geometry": {"type": "Point", "coordinates": [102.40948786526157, -4.048025547984388]}, "properties": {"id": 2906, "jenis": "durian"}}, {"type": "Feature", "geometry": {"type": "Point", "coordinates": [102.40948786526157, -4.048070351692839]}, "properties": {"id": 2907, "jenis": "durian"}}, {"type": "Feature", "geometry": {"type": "Point", "coordinates": [102.40948786526157, -4.04811515539881]}, "properties": {"id": 2908, "jenis": "durian"}}, {"type": "Feature", "geometry": {"type": "Point", "coordinates": [102.40948786526157, -4.048159959102302]}, "properties": {"id": 2909, "jenis": "durian"}}, {"type": "Feature", "geometry": {"type": "Point", "coordinates": [102.40948786526157, -4.048204762803313]}, "properties": {"id": 2910, "jenis": "durian"}}, {"type": "Feature", "geometry": {"type": "Point", "coordinates": [102.40948786526157, -4.048249566501847]}, "properties": {"id": 2911, "jenis": "durian"}}, {"type": "Feature", "geometry": {"type": "Point", "coordinates": [102.40948786526157, -4.048294370197899]}, "properties": {"id": 2912, "jenis": "durian"}}, {"type": "Feature", "geometry": {"type": "Point", "coordinates": [102.40948786526157, -4.048339173891473]}, "properties": {"id": 2913, "jenis": "durian"}}, {"type": "Feature", "geometry": {"type": "Point", "coordinates": [102.40948786526157, -4.048383977582567]}, "properties": {"id": 2914, "jenis": "durian"}}, {"type": "Feature", "geometry": {"type": "Point", "coordinates": [102.40948786526157, -4.048428781271182]}, "properties": {"id": 2915, "jenis": "durian"}}, {"type": "Feature", "geometry": {"type": "Point", "coordinates": [102.40948786526157, -4.048473584957317]}, "properties": {"id": 2916, "jenis": "durian"}}, {"type": "Feature", "geometry": {"type": "Point", "coordinates": [102.40948786526157, -4.048518388640972]}, "properties": {"id": 2917, "jenis": "durian"}}, {"type": "Feature", "geometry": {"type": "Point", "coordinates": [102.40948786526157, -4.048563192322147]}, "properties": {"id": 2918, "jenis": "durian"}}, {"type": "Feature", "geometry": {"type": "Point", "coordinates": [102.40948786526157, -4.048607996000844]}, "properties": {"id": 2919, "jenis": "durian"}}, {"type": "Feature", "geometry": {"type": "Point", "coordinates": [102.40948786526157, -4.048652799677058]}, "properties": {"id": 2920, "jenis": "durian"}}, {"type": "Feature", "geometry": {"type": "Point", "coordinates": [102.40948786526157, -4.048697603350795]}, "properties": {"id": 2921, "jenis": "durian"}}, {"type": "Feature", "geometry": {"type": "Point", "coordinates": [102.40948786526157, -4.048742407022051]}, "properties": {"id": 2922, "jenis": "durian"}}, {"type": "Feature", "geometry": {"type": "Point", "coordinates": [102.40948786526157, -4.048787210690827]}, "properties": {"id": 2923, "jenis": "durian"}}, {"type": "Feature", "geometry": {"type": "Point", "coordinates": [102.40948786526157, -4.048832014357124]}, "properties": {"id": 2924, "jenis": "durian"}}, {"type": "Feature", "geometry": {"type": "Point", "coordinates": [102.40948786526157, -4.048876818020941]}, "properties": {"id": 2925, "jenis": "durian"}}, {"type": "Feature", "geometry": {"type": "Point", "coordinates": [102.40948786526157, -4.048921621682278]}, "properties": {"id": 2926, "jenis": "durian"}}, {"type": "Feature", "geometry": {"type": "Point", "coordinates": [102.40948786526157, -4.048966425341134]}, "properties": {"id": 2927, "jenis": "durian"}}, {"type": "Feature", "geometry": {"type": "Point", "coordinates": [102.40953278102577, -4.047980744273457]}, "properties": {"id": 2985, "jenis": "durian"}}, {"type": "Feature", "geometry": {"type": "Point", "coordinates": [102.40953278102577, -4.048025547984388]}, "properties": {"id": 2986, "jenis": "durian"}}, {"type": "Feature", "geometry": {"type": "Point", "coordinates": [102.40953278102577, -4.048070351692839]}, "properties": {"id": 2987, "jenis": "durian"}}, {"type": "Feature", "geometry": {"type": "Point", "coordinates": [102.40953278102577, -4.04811515539881]}, "properties": {"id": 2988, "jenis": "durian"}}, {"type": "Feature", "geometry": {"type": "Point", "coordinates": [102.40953278102577, -4.048159959102302]}, "properties": {"id": 2989, "jenis": "durian"}}, {"type": "Feature", "geometry": {"type": "Point", "coordinates": [102.40953278102577, -4.048204762803313]}, "properties": {"id": 2990, "jenis": "durian"}}, {"type": "Feature", "geometry": {"type": "Point", "coordinates": [102.40953278102577, -4.048249566501847]}, "properties": {"id": 2991, "jenis": "durian"}}, {"type": "Feature", "geometry": {"type": "Point", "coordinates": [102.40953278102577, -4.048294370197899]}, "properties": {"id": 2992, "jenis": "durian"}}, {"type": "Feature", "geometry": {"type": "Point", "coordinates": [102.40953278102577, -4.048339173891473]}, "properties": {"id": 2993, "jenis": "durian"}}, {"type": "Feature", "geometry": {"type": "Point", "coordinates": [102.40953278102577, -4.048383977582567]}, "properties": {"id": 2994, "jenis": "durian"}}, {"type": "Feature", "geometry": {"type": "Point", "coordinates": [102.40953278102577, -4.048428781271182]}, "properties": {"id": 2995, "jenis": "durian"}}, {"type": "Feature", "geometry": {"type": "Point", "coordinates": [102.40953278102577, -4.048473584957317]}, "properties": {"id": 2996, "jenis": "durian"}}, {"type": "Feature", "geometry": {"type": "Point", "coordinates": [102.40953278102577, -4.048518388640972]}, "properties": {"id": 2997, "jenis": "durian"}}, {"type": "Feature", "geometry": {"type": "Point", "coordinates": [102.40953278102577, -4.048563192322147]}, "properties": {"id": 2998, "jenis": "durian"}}, {"type": "Feature", "geometry": {"type": "Point", "coordinates": [102.40953278102577, -4.048607996000844]}, "properties": {"id": 2999, "jenis": "durian"}}, {"type": "Feature", "geometry": {"type": "Point", "coordinates": [102.40953278102577, -4.048652799677058]}, "properties": {"id": 3000, "jenis": "durian"}}, {"type": "Feature", "geometry": {"type": "Point", "coordinates": [102.40953278102577, -4.048697603350795]}, "properties": {"id": 3001, "jenis": "durian"}}, {"type": "Feature", "geometry": {"type": "Point", "coordinates": [102.40953278102577, -4.048742407022051]}, "properties": {"id": 3002, "jenis": "durian"}}, {"type": "Feature", "geometry": {"type": "Point", "coordinates": [102.40953278102577, -4.048787210690827]}, "properties": {"id": 3003, "jenis": "durian"}}, {"type": "Feature", "geometry": {"type": "Point", "coordinates": [102.40953278102577, -4.048832014357124]}, "properties": {"id": 3004, "jenis": "durian"}}, {"type": "Feature", "geometry": {"type": "Point", "coordinates": [102.40953278102577, -4.048876818020941]}, "properties": {"id": 3005, "jenis": "durian"}}, {"type": "Feature", "geometry": {"type": "Point", "coordinates": [102.40957769678998, -4.04811515539881]}, "properties": {"id": 3068, "jenis": "durian"}}, {"type": "Feature", "geometry": {"type": "Point", "coordinates": [102.40957769678998, -4.048159959102302]}, "properties": {"id": 3069, "jenis": "durian"}}, {"type": "Feature", "geometry": {"type": "Point", "coordinates": [102.40957769678998, -4.048204762803313]}, "properties": {"id": 3070, "jenis": "durian"}}, {"type": "Feature", "geometry": {"type": "Point", "coordinates": [102.40957769678998, -4.048249566501847]}, "properties": {"id": 3071, "jenis": "durian"}}, {"type": "Feature", "geometry": {"type": "Point", "coordinates": [102.40957769678998, -4.048294370197899]}, "properties": {"id": 3072, "jenis": "durian"}}, {"type": "Feature", "geometry": {"type": "Point", "coordinates": [102.40957769678998, -4.048339173891473]}, "properties": {"id": 3073, "jenis": "durian"}}, {"type": "Feature", "geometry": {"type": "Point", "coordinates": [102.40957769678998, -4.048383977582567]}, "properties": {"id": 3074, "jenis": "durian"}}, {"type": "Feature", "geometry": {"type": "Point", "coordinates": [102.40957769678998, -4.048428781271182]}, "properties": {"id": 3075, "jenis": "durian"}}, {"type": "Feature", "geometry": {"type": "Point", "coordinates": [102.40957769678998, -4.048473584957317]}, "properties": {"id": 3076, "jenis": "durian"}}, {"type": "Feature", "geometry": {"type": "Point", "coordinates": [102.40957769678998, -4.048518388640972]}, "properties": {"id": 3077, "jenis": "durian"}}, {"type": "Feature", "geometry": {"type": "Point", "coordinates": [102.40957769678998, -4.048563192322147]}, "properties": {"id": 3078, "jenis": "durian"}}, {"type": "Feature", "geometry": {"type": "Point", "coordinates": [102.40957769678998, -4.048607996000844]}, "properties": {"id": 3079, "jenis": "durian"}}, {"type": "Feature", "geometry": {"type": "Point", "coordinates": [102.40957769678998, -4.048652799677058]}, "properties": {"id": 3080, "jenis": "durian"}}, {"type": "Feature", "geometry": {"type": "Point", "coordinates": [102.40957769678998, -4.048697603350795]}, "properties": {"id": 3081, "jenis": "durian"}}, {"type": "Feature", "geometry": {"type": "Point", "coordinates": [102.40957769678998, -4.048742407022051]}, "properties": {"id": 3082, "jenis": "durian"}}, {"type": "Feature", "geometry": {"type": "Point", "coordinates": [102.40957769678998, -4.048787210690827]}, "properties": {"id": 3083, "jenis": "durian"}}, {"type": "Feature", "geometry": {"type": "Point", "coordinates": [102.40957769678998, -4.048832014357124]}, "properties": {"id": 3084, "jenis": "durian"}}, {"type": "Feature", "geometry": {"type": "Point", "coordinates": [102.40962261255419, -4.048249566501847]}, "properties": {"id": 3151, "jenis": "durian"}}, {"type": "Feature", "geometry": {"type": "Point", "coordinates": [102.40962261255419, -4.048294370197899]}, "properties": {"id": 3152, "jenis": "durian"}}, {"type": "Feature", "geometry": {"type": "Point", "coordinates": [102.40962261255419, -4.048339173891473]}, "properties": {"id": 3153, "jenis": "durian"}}, {"type": "Feature", "geometry": {"type": "Point", "coordinates": [102.40962261255419, -4.048383977582567]}, "properties": {"id": 3154, "jenis": "durian"}}, {"type": "Feature", "geometry": {"type": "Point", "coordinates": [102.40962261255419, -4.048428781271182]}, "properties": {"id": 3155, "jenis": "durian"}}, {"type": "Feature", "geometry": {"type": "Point", "coordinates": [102.40962261255419, -4.048473584957317]}, "properties": {"id": 3156, "jenis": "durian"}}, {"type": "Feature", "geometry": {"type": "Point", "coordinates": [102.40962261255419, -4.048518388640972]}, "properties": {"id": 3157, "jenis": "durian"}}, {"type": "Feature", "geometry": {"type": "Point", "coordinates": [102.40962261255419, -4.048563192322147]}, "properties": {"id": 3158, "jenis": "durian"}}, {"type": "Feature", "geometry": {"type": "Point", "coordinates": [102.40962261255419, -4.048607996000844]}, "properties": {"id": 3159, "jenis": "durian"}}, {"type": "Feature", "geometry": {"type": "Point", "coordinates": [102.40962261255419, -4.048652799677058]}, "properties": {"id": 3160, "jenis": "durian"}}, {"type": "Feature", "geometry": {"type": "Point", "coordinates": [102.40962261255419, -4.048697603350795]}, "properties": {"id": 3161, "jenis": "durian"}}, {"type": "Feature", "geometry": {"type": "Point", "coordinates": [102.40962261255419, -4.048742407022051]}, "properties": {"id": 3162, "jenis": "durian"}}, {"type": "Feature", "geometry": {"type": "Point", "coordinates": [102.40962261255419, -4.048787210690827]}, "properties": {"id": 3163, "jenis": "durian"}}, {"type": "Feature", "geometry": {"type": "Point", "coordinates": [102.4096675283184, -4.048294370197899]}, "properties": {"id": 3232, "jenis": "durian"}}, {"type": "Feature", "geometry": {"type": "Point", "coordinates": [102.4096675283184, -4.048339173891473]}, "properties": {"id": 3233, "jenis": "durian"}}, {"type": "Feature", "geometry": {"type": "Point", "coordinates": [102.4096675283184, -4.048383977582567]}, "properties": {"id": 3234, "jenis": "durian"}}, {"type": "Feature", "geometry": {"type": "Point", "coordinates": [102.4096675283184, -4.048428781271182]}, "properties": {"id": 3235, "jenis": "durian"}}, {"type": "Feature", "geometry": {"type": "Point", "coordinates": [102.4096675283184, -4.048473584957317]}, "properties": {"id": 3236, "jenis": "durian"}}, {"type": "Feature", "geometry": {"type": "Point", "coordinates": [102.4096675283184, -4.048518388640972]}, "properties": {"id": 3237, "jenis": "durian"}}, {"type": "Feature", "geometry": {"type": "Point", "coordinates": [102.4096675283184, -4.048563192322147]}, "properties": {"id": 3238, "jenis": "durian"}}, {"type": "Feature", "geometry": {"type": "Point", "coordinates": [102.4096675283184, -4.048607996000844]}, "properties": {"id": 3239, "jenis": "durian"}}, {"type": "Feature", "geometry": {"type": "Point", "coordinates": [102.4096675283184, -4.048652799677058]}, "properties": {"id": 3240, "jenis": "durian"}}, {"type": "Feature", "geometry": {"type": "Point", "coordinates": [102.4096675283184, -4.048697603350795]}, "properties": {"id": 3241, "jenis": "durian"}}, {"type": "Feature", "geometry": {"type": "Point", "coordinates": [102.4096675283184, -4.048742407022051]}, "properties": {"id": 3242, "jenis": "durian"}}, {"type": "Feature", "geometry": {"type": "Point", "coordinates": [102.4096675283184, -4.048787210690827]}, "properties": {"id": 3243, "jenis": "durian"}}, {"type": "Feature", "geometry": {"type": "Point", "coordinates": [102.4097124440826, -4.048339173891473]}, "properties": {"id": 3313, "jenis": "durian"}}, {"type": "Feature", "geometry": {"type": "Point", "coordinates": [102.4097124440826, -4.048383977582567]}, "properties": {"id": 3314, "jenis": "durian"}}, {"type": "Feature", "geometry": {"type": "Point", "coordinates": [102.4097124440826, -4.048428781271182]}, "properties": {"id": 3315, "jenis": "durian"}}, {"type": "Feature", "geometry": {"type": "Point", "coordinates": [102.4097124440826, -4.048473584957317]}, "properties": {"id": 3316, "jenis": "durian"}}, {"type": "Feature", "geometry": {"type": "Point", "coordinates": [102.4097124440826, -4.048518388640972]}, "properties": {"id": 3317, "jenis": "durian"}}, {"type": "Feature", "geometry": {"type": "Point", "coordinates": [102.4097124440826, -4.048563192322147]}, "properties": {"id": 3318, "jenis": "durian"}}, {"type": "Feature", "geometry": {"type": "Point", "coordinates": [102.4097124440826, -4.048607996000844]}, "properties": {"id": 3319, "jenis": "durian"}}, {"type": "Feature", "geometry": {"type": "Point", "coordinates": [102.4097124440826, -4.048652799677058]}, "properties": {"id": 3320, "jenis": "durian"}}, {"type": "Feature", "geometry": {"type": "Point", "coordinates": [102.4097124440826, -4.048697603350795]}, "properties": {"id": 3321, "jenis": "durian"}}, {"type": "Feature", "geometry": {"type": "Point", "coordinates": [102.4097124440826, -4.048742407022051]}, "properties": {"id": 3322, "jenis": "durian"}}, {"type": "Feature", "geometry": {"type": "Point", "coordinates": [102.4097124440826, -4.048787210690827]}, "properties": {"id": 3323, "jenis": "durian"}}, {"type": "Feature", "geometry": {"type": "Point", "coordinates": [102.40975735984681, -4.048383977582567]}, "properties": {"id": 3394, "jenis": "durian"}}, {"type": "Feature", "geometry": {"type": "Point", "coordinates": [102.40975735984681, -4.048428781271182]}, "properties": {"id": 3395, "jenis": "durian"}}, {"type": "Feature", "geometry": {"type": "Point", "coordinates": [102.40975735984681, -4.048473584957317]}, "properties": {"id": 3396, "jenis": "durian"}}, {"type": "Feature", "geometry": {"type": "Point", "coordinates": [102.40975735984681, -4.048518388640972]}, "properties": {"id": 3397, "jenis": "durian"}}, {"type": "Feature", "geometry": {"type": "Point", "coordinates": [102.40975735984681, -4.048563192322147]}, "properties": {"id": 3398, "jenis": "durian"}}, {"type": "Feature", "geometry": {"type": "Point", "coordinates": [102.40975735984681, -4.048607996000844]}, "properties": {"id": 3399, "jenis": "durian"}}, {"type": "Feature", "geometry": {"type": "Point", "coordinates": [102.40975735984681, -4.048652799677058]}, "properties": {"id": 3400, "jenis": "durian"}}, {"type": "Feature", "geometry": {"type": "Point", "coordinates": [102.40975735984681, -4.048697603350795]}, "properties": {"id": 3401, "jenis": "durian"}}, {"type": "Feature", "geometry": {"type": "Point", "coordinates": [102.40975735984681, -4.048742407022051]}, "properties": {"id": 3402, "jenis": "durian"}}, {"type": "Feature", "geometry": {"type": "Point", "coordinates": [102.40975735984681, -4.048787210690827]}, "properties": {"id": 3403, "jenis": "durian"}}, {"type": "Feature", "geometry": {"type": "Point", "coordinates": [102.40980227561101, -4.048428781271182]}, "properties": {"id": 3475, "jenis": "durian"}}, {"type": "Feature", "geometry": {"type": "Point", "coordinates": [102.40980227561101, -4.048473584957317]}, "properties": {"id": 3476, "jenis": "durian"}}, {"type": "Feature", "geometry": {"type": "Point", "coordinates": [102.40980227561101, -4.048518388640972]}, "properties": {"id": 3477, "jenis": "durian"}}, {"type": "Feature", "geometry": {"type": "Point", "coordinates": [102.40980227561101, -4.048563192322147]}, "properties": {"id": 3478, "jenis": "durian"}}, {"type": "Feature", "geometry": {"type": "Point", "coordinates": [102.40980227561101, -4.048607996000844]}, "properties": {"id": 3479, "jenis": "durian"}}, {"type": "Feature", "geometry": {"type": "Point", "coordinates": [102.40980227561101, -4.048652799677058]}, "properties": {"id": 3480, "jenis": "durian"}}, {"type": "Feature", "geometry": {"type": "Point", "coordinates": [102.40980227561101, -4.048697603350795]}, "properties": {"id": 3481, "jenis": "durian"}}, {"type": "Feature", "geometry": {"type": "Point", "coordinates": [102.40980227561101, -4.048742407022051]}, "properties": {"id": 3482, "jenis": "durian"}}, {"type": "Feature", "geometry": {"type": "Point", "coordinates": [102.40980227561101, -4.048787210690827]}, "properties": {"id": 3483, "jenis": "durian"}}, {"type": "Feature", "geometry": {"type": "Point", "coordinates": [102.40984719137522, -4.048473584957317]}, "properties": {"id": 3556, "jenis": "durian"}}, {"type": "Feature", "geometry": {"type": "Point", "coordinates": [102.40984719137522, -4.048518388640972]}, "properties": {"id": 3557, "jenis": "durian"}}, {"type": "Feature", "geometry": {"type": "Point", "coordinates": [102.40984719137522, -4.048563192322147]}, "properties": {"id": 3558, "jenis": "durian"}}, {"type": "Feature", "geometry": {"type": "Point", "coordinates": [102.40984719137522, -4.048607996000844]}, "properties": {"id": 3559, "jenis": "durian"}}, {"type": "Feature", "geometry": {"type": "Point", "coordinates": [102.40984719137522, -4.048652799677058]}, "properties": {"id": 3560, "jenis": "durian"}}, {"type": "Feature", "geometry": {"type": "Point", "coordinates": [102.40984719137522, -4.048697603350795]}, "properties": {"id": 3561, "jenis": "durian"}}, {"type": "Feature", "geometry": {"type": "Point", "coordinates": [102.40984719137522, -4.048742407022051]}, "properties": {"id": 3562, "jenis": "durian"}}, {"type": "Feature", "geometry": {"type": "Point", "coordinates": [102.40984719137522, -4.048787210690827]}, "properties": {"id": 3563, "jenis": "durian"}}, {"type": "Feature", "geometry": {"type": "Point", "coordinates": [102.40984719137522, -4.048832014357124]}, "properties": {"id": 3564, "jenis": "durian"}}, {"type": "Feature", "geometry": {"type": "Point", "coordinates": [102.40989210713943, -4.048473584957317]}, "properties": {"id": 3636, "jenis": "durian"}}, {"type": "Feature", "geometry": {"type": "Point", "coordinates": [102.40989210713943, -4.048518388640972]}, "properties": {"id": 3637, "jenis": "durian"}}, {"type": "Feature", "geometry": {"type": "Point", "coordinates": [102.40989210713943, -4.048563192322147]}, "properties": {"id": 3638, "jenis": "durian"}}, {"type": "Feature", "geometry": {"type": "Point", "coordinates": [102.40989210713943, -4.048607996000844]}, "properties": {"id": 3639, "jenis": "durian"}}, {"type": "Feature", "geometry": {"type": "Point", "coordinates": [102.40989210713943, -4.048652799677058]}, "properties": {"id": 3640, "jenis": "durian"}}, {"type": "Feature", "geometry": {"type": "Point", "coordinates": [102.40989210713943, -4.048697603350795]}, "properties": {"id": 3641, "jenis": "durian"}}, {"type": "Feature", "geometry": {"type": "Point", "coordinates": [102.40989210713943, -4.048742407022051]}, "properties": {"id": 3642, "jenis": "durian"}}, {"type": "Feature", "geometry": {"type": "Point", "coordinates": [102.40993702290363, -4.048518388640972]}, "properties": {"id": 3717, "jenis": "durian"}}, {"type": "Feature", "geometry": {"type": "Point", "coordinates": [102.40993702290363, -4.048563192322147]}, "properties": {"id": 3718, "jenis": "durian"}}, {"type": "Feature", "geometry": {"type": "Point", "coordinates": [102.40993702290363, -4.048607996000844]}, "properties": {"id": 3719, "jenis": "durian"}}, {"type": "Feature", "geometry": {"type": "Point", "coordinates": [102.40998193866784, -4.048518388640972]}, "properties": {"id": 3797, "jenis": "durian"}}, {"type": "Feature", "geometry": {"type": "Point", "coordinates": [102.40998193866784, -4.048563192322147]}, "properties": {"id": 3798, "jenis": "durian"}}, {"type": "Feature", "geometry": {"type": "Point", "coordinates": [102.40998193866784, -4.048607996000844]}, "properties": {"id": 3799, "jenis": "durian"}}, {"type": "Feature", "geometry": {"type": "Point", "coordinates": [102.40998193866784, -4.048652799677058]}, "properties": {"id": 3800, "jenis": "durian"}}, {"type": "Feature", "geometry": {"type": "Point", "coordinates": [102.41002685443203, -4.048563192322147]}, "properties": {"id": 3878, "jenis": "durian"}}, {"type": "Feature", "geometry": {"type": "Point", "coordinates": [102.41002685443203, -4.048607996000844]}, "properties": {"id": 3879, "jenis": "durian"}}, {"type": "Feature", "geometry": {"type": "Point", "coordinates": [102.41002685443203, -4.048652799677058]}, "properties": {"id": 3880, "jenis": "durian"}}, {"type": "Feature", "geometry": {"type": "Point", "coordinates": [102.41007177019624, -4.048563192322147]}, "properties": {"id": 3958, "jenis": "durian"}}, {"type": "Feature", "geometry": {"type": "Point", "coordinates": [102.41007177019624, -4.048607996000844]}, "properties": {"id": 3959, "jenis": "durian"}}, {"type": "Feature", "geometry": {"type": "Point", "coordinates": [102.41007177019624, -4.048652799677058]}, "properties": {"id": 3960, "jenis": "durian"}}, {"type": "Feature", "geometry": {"type": "Point", "coordinates": [102.41011668596045, -4.048563192322147]}, "properties": {"id": 4038, "jenis": "durian"}}, {"type": "Feature", "geometry": {"type": "Point", "coordinates": [102.41011668596045, -4.048607996000844]}, "properties": {"id": 4039, "jenis": "durian"}}, {"type": "Feature", "geometry": {"type": "Point", "coordinates": [102.41011668596045, -4.048652799677058]}, "properties": {"id": 4040, "jenis": "durian"}}, {"type": "Feature", "geometry": {"type": "Point", "coordinates": [102.41016160172465, -4.048607996000844]}, "properties": {"id": 4119, "jenis": "durian"}}, {"type": "Feature", "geometry": {"type": "Point", "coordinates": [102.40919437572732, -4.048541575627945]}, "properties": {"id": 55, "jenis": "palm"}}, {"type": "Feature", "geometry": {"type": "Point", "coordinates": [102.40919437572732, -4.048586379307837]}, "properties": {"id": 56, "jenis": "palm"}}, {"type": "Feature", "geometry": {"type": "Point", "coordinates": [102.40919437572732, -4.048631182985249]}, "properties": {"id": 57, "jenis": "palm"}}, {"type": "Feature", "geometry": {"type": "Point", "coordinates": [102.40919437572732, -4.048675986660182]}, "properties": {"id": 58, "jenis": "palm"}}, {"type": "Feature", "geometry": {"type": "Point", "coordinates": [102.40923929149152, -4.048451968260722]}, "properties": {"id": 87, "jenis": "palm"}}, {"type": "Feature", "geometry": {"type": "Point", "coordinates": [102.40923929149152, -4.048496771945573]}, "properties": {"id": 88, "jenis": "palm"}}, {"type": "Feature", "geometry": {"type": "Point", "coordinates": [102.40923929149152, -4.048541575627945]}, "properties": {"id": 89, "jenis": "palm"}}, {"type": "Feature", "geometry": {"type": "Point", "coordinates": [102.40923929149152, -4.048586379307837]}, "properties": {"id": 90, "jenis": "palm"}}, {"type": "Feature", "geometry": {"type": "Point", "coordinates": [102.40923929149152, -4.048631182985249]}, "properties": {"id": 91, "jenis": "palm"}}, {"type": "Feature", "geometry": {"type": "Point", "coordinates": [102.40923929149152, -4.048675986660182]}, "properties": {"id": 92, "jenis": "palm"}}, {"type": "Feature", "geometry": {"type": "Point", "coordinates": [102.40923929149152, -4.048720790332635]}, "properties": {"id": 93, "jenis": "palm"}}, {"type": "Feature", "geometry": {"type": "Point", "coordinates": [102.40923929149152, -4.048765594002607]}, "properties": {"id": 94, "jenis": "palm"}}, {"type": "Feature", "geometry": {"type": "Point", "coordinates": [102.40923929149152, -4.048989612315274]}, "properties": {"id": 99, "jenis": "palm"}}, {"type": "Feature", "geometry": {"type": "Point", "coordinates": [102.40928420725572, -4.04831755719129]}, "properties": {"id": 118, "jenis": "palm"}}, {"type": "Feature", "geometry": {"type": "Point", "coordinates": [102.40928420725572, -4.04836236088358]}, "properties": {"id": 119, "jenis": "palm"}}, {"type": "Feature", "geometry": {"type": "Point", "coordinates": [102.40928420725572, -4.048407164573391]}, "properties": {"id": 120, "jenis": "palm"}}, {"type": "Feature", "geometry": {"type": "Point", "coordinates": [102.40928420725572, -4.048451968260722]}, "properties": {"id": 121, "jenis": "palm"}}, {"type": "Feature", "geometry": {"type": "Point", "coordinates": [102.40928420725572, -4.048496771945573]}, "properties": {"id": 122, "jenis": "palm"}}, {"type": "Feature", "geometry": {"type": "Point", "coordinates": [102.40928420725572, -4.048541575627945]}, "properties": {"id": 123, "jenis": "palm"}}, {"type": "Feature", "geometry": {"type": "Point", "coordinates": [102.40928420725572, -4.048586379307837]}, "properties": {"id": 124, "jenis": "palm"}}, {"type": "Feature", "geometry": {"type": "Point", "coordinates": [102.40928420725572, -4.048631182985249]}, "properties": {"id": 125, "jenis": "palm"}}, {"type": "Feature", "geometry": {"type": "Point", "coordinates": [102.40928420725572, -4.048675986660182]}, "properties": {"id": 126, "jenis": "palm"}}, {"type": "Feature", "geometry": {"type": "Point", "coordinates": [102.40928420725572, -4.048720790332635]}, "properties": {"id": 127, "jenis": "palm"}}, {"type": "Feature", "geometry": {"type": "Point", "coordinates": [102.40928420725572, -4.048765594002607]}, "properties": {"id": 128, "jenis": "palm"}}, {"type": "Feature", "geometry": {"type": "Point", "coordinates": [102.40928420725572, -4.048810397670101]}, "properties": {"id": 129, "jenis": "palm"}}, {"type": "Feature", "geometry": {"type": "Point", "coordinates": [102.40928420725572, -4.0489448086577]}, "properties": {"id": 132, "jenis": "palm"}}, {"type": "Feature", "geometry": {"type": "Point", "coordinates": [102.40928420725572, -4.048989612315274]}, "properties": {"id": 133, "jenis": "palm"}}, {"type": "Feature", "geometry": {"type": "Point", "coordinates": [102.40928420725572, -4.049034415970367]}, "properties": {"id": 134, "jenis": "palm"}}, {"type": "Feature", "geometry": {"type": "Point", "coordinates": [102.40932912301993, -4.047824716412447]}, "properties": {"id": 141, "jenis": "palm"}}, {"type": "Feature", "geometry": {"type": "Point", "coordinates": [102.40932912301993, -4.047869520132013]}, "properties": {"id": 142, "jenis": "palm"}}, {"type": "Feature", "geometry": {"type": "Point", "coordinates": [102.40932912301993, -4.047914323849097]}, "properties": {"id": 143, "jenis": "palm"}}, {"type": "Feature", "geometry": {"type": "Point", "coordinates": [102.40932912301993, -4.047959127563703]}, "properties": {"id": 144, "jenis": "palm"}}, {"type": "Feature", "geometry": {"type": "Point", "coordinates": [102.40932912301993, -4.048003931275829]}, "properties": {"id": 145, "jenis": "palm"}}, {"type": "Feature", "geometry": {"type": "Point", "coordinates": [102.40932912301993, -4.048048734985476]}, "properties": {"id": 146, "jenis": "palm"}}, {"type": "Feature", "geometry": {"type": "Point", "coordinates": [102.40932912301993, -4.048093538692644]}, "properties": {"id": 147, "jenis": "palm"}}, {"type": "Feature", "geometry": {"type": "Point", "coordinates": [102.40932912301993, -4.048138342397333]}, "properties": {"id": 148, "jenis": "palm"}}, {"type": "Feature", "geometry": {"type": "Point", "coordinates": [102.40932912301993, -4.048183146099541]}, "properties": {"id": 149, "jenis": "palm"}}, {"type": "Feature", "geometry": {"type": "Point", "coordinates": [102.40932912301993, -4.04822794979927]}, "properties": {"id": 150, "jenis": "palm"}}, {"type": "Feature", "geometry": {"type": "Point", "coordinates": [102.40932912301993, -4.04827275349652]}, "properties": {"id": 151, "jenis": "palm"}}, {"type": "Feature", "geometry": {"type": "Point", "coordinates": [102.40932912301993, -4.04831755719129]}, "properties": {"id": 152, "jenis": "palm"}}, {"type": "Feature", "geometry": {"type": "Point", "coordinates": [102.40932912301993, -4.04836236088358]}, "properties": {"id": 153, "jenis": "palm"}}, {"type": "Feature", "geometry": {"type": "Point", "coordinates": [102.40932912301993, -4.048407164573391]}, "properties": {"id": 154, "jenis": "palm"}}, {"type": "Feature", "geometry": {"type": "Point", "coordinates": [102.40932912301993, -4.048451968260722]}, "properties": {"id": 155, "jenis": "palm"}}, {"type": "Feature", "geometry": {"type": "Point", "coordinates": [102.40932912301993, -4.048496771945573]}, "properties": {"id": 156, "jenis": "palm"}}, {"type": "Feature", "geometry": {"type": "Point", "coordinates": [102.40932912301993, -4.048541575627945]}, "properties": {"id": 157, "jenis": "palm"}}, {"type": "Feature", "geometry": {"type": "Point", "coordinates": [102.40932912301993, -4.048586379307837]}, "properties": {"id": 158, "jenis": "palm"}}, {"type": "Feature", "geometry": {"type": "Point", "coordinates": [102.40932912301993, -4.048631182985249]}, "properties": {"id": 159, "jenis": "palm"}}, {"type": "Feature", "geometry": {"type": "Point", "coordinates": [102.40932912301993, -4.048675986660182]}, "properties": {"id": 160, "jenis": "palm"}}, {"type": "Feature", "geometry": {"type": "Point", "coordinates": [102.40932912301993, -4.048720790332635]}, "properties": {"id": 161, "jenis": "palm"}}, {"type": "Feature", "geometry": {"type": "Point", "coordinates": [102.40932912301993, -4.048765594002607]}, "properties": {"id": 162, "jenis": "palm"}}, {"type": "Feature", "geometry": {"type": "Point", "coordinates": [102.40932912301993, -4.048810397670101]}, "properties": {"id": 163, "jenis": "palm"}}, {"type": "Feature", "geometry": {"type": "Point", "coordinates": [102.40932912301993, -4.048855201335114]}, "properties": {"id": 164, "jenis": "palm"}}, {"type": "Feature", "geometry": {"type": "Point", "coordinates": [102.40932912301993, -4.048900004997647]}, "properties": {"id": 165, "jenis": "palm"}}, {"type": "Feature", "geometry": {"type": "Point", "coordinates": [102.40932912301993, -4.0489448086577]}, "properties": {"id": 166, "jenis": "palm"}}, {"type": "Feature", "geometry": {"type": "Point", "coordinates": [102.40932912301993, -4.048989612315274]}, "properties": {"id": 167, "jenis": "palm"}}, {"type": "Feature", "geometry": {"type": "Point", "coordinates": [102.40932912301993, -4.049034415970367]}, "properties": {"id": 168, "jenis": "palm"}}, {"type": "Feature", "geometry": {"type": "Point", "coordinates": [102.40932912301993, -4.04907921962298]}, "properties": {"id": 169, "jenis": "palm"}}, {"type": "Feature", "geometry": {"type": "Point", "coordinates": [102.40937403878414, -4.047690305238879]}, "properties": {"id": 172, "jenis": "palm"}}, {"type": "Feature", "geometry": {"type": "Point", "coordinates": [102.40937403878414, -4.04773510896588]}, "properties": {"id": 173, "jenis": "palm"}}, {"type": "Feature", "geometry": {"type": "Point", "coordinates": [102.40937403878414, -4.047779912690404]}, "properties": {"id": 174, "jenis": "palm"}}, {"type": "Feature", "geometry": {"type": "Point", "coordinates": [102.40937403878414, -4.047824716412447]}, "properties": {"id": 175, "jenis": "palm"}}, {"type": "Feature", "geometry": {"type": "Point", "coordinates": [102.40937403878414, -4.047869520132013]}, "properties": {"id": 176, "jenis": "palm"}}, {"type": "Feature", "geometry": {"type": "Point", "coordinates": [102.40937403878414, -4.047914323849097]}, "properties": {"id": 177, "jenis": "palm"}}, {"type": "Feature", "geometry": {"type": "Point", "coordinates": [102.40937403878414, -4.047959127563703]}, "properties": {"id": 178, "jenis": "palm"}}, {"type": "Feature", "geometry": {"type": "Point", "coordinates": [102.40937403878414, -4.048003931275829]}, "properties": {"id": 179, "jenis": "palm"}}, {"type": "Feature", "geometry": {"type": "Point", "coordinates": [102.40937403878414, -4.048048734985476]}, "properties": {"id": 180, "jenis": "palm"}}, {"type": "Feature", "geometry": {"type": "Point", "coordinates": [102.40937403878414, -4.048093538692644]}, "properties": {"id": 181, "jenis": "palm"}}, {"type": "Feature", "geometry": {"type": "Point", "coordinates": [102.40937403878414, -4.048138342397333]}, "properties": {"id": 182, "jenis": "palm"}}, {"type": "Feature", "geometry": {"type": "Point", "coordinates": [102.40937403878414, -4.048183146099541]}, "properties": {"id": 183, "jenis": "palm"}}, {"type": "Feature", "geometry": {"type": "Point", "coordinates": [102.40937403878414, -4.04822794979927]}, "properties": {"id": 184, "jenis": "palm"}}, {"type": "Feature", "geometry": {"type": "Point", "coordinates": [102.40937403878414, -4.04827275349652]}, "properties": {"id": 185, "jenis": "palm"}}, {"type": "Feature", "geometry": {"type": "Point", "coordinates": [102.40937403878414, -4.04831755719129]}, "properties": {"id": 186, "jenis": "palm"}}, {"type": "Feature", "geometry": {"type": "Point", "coordinates": [102.40937403878414, -4.04836236088358]}, "properties": {"id": 187, "jenis": "palm"}}, {"type": "Feature", "geometry": {"type": "Point", "coordinates": [102.40937403878414, -4.048407164573391]}, "properties": {"id": 188, "jenis": "palm"}}, {"type": "Feature", "geometry": {"type": "Point", "coordinates": [102.40937403878414, -4.048451968260722]}, "properties": {"id": 189, "jenis": "palm"}}, {"type": "Feature", "geometry": {"type": "Point", "coordinates": [102.40937403878414, -4.048496771945573]}, "properties": {"id": 190, "jenis": "palm"}}, {"type": "Feature", "geometry": {"type": "Point", "coordinates": [102.40937403878414, -4.048541575627945]}, "properties": {"id": 191, "jenis": "palm"}}, {"type": "Feature", "geometry": {"type": "Point", "coordinates": [102.40937403878414, -4.048586379307837]}, "properties": {"id": 192, "jenis": "palm"}}, {"type": "Feature", "geometry": {"type": "Point", "coordinates": [102.40937403878414, -4.048631182985249]}, "properties": {"id": 193, "jenis": "palm"}}, {"type": "Feature", "geometry": {"type": "Point", "coordinates": [102.40937403878414, -4.048675986660182]}, "properties": {"id": 194, "jenis": "palm"}}, {"type": "Feature", "geometry": {"type": "Point", "coordinates": [102.40937403878414, -4.048720790332635]}, "properties": {"id": 195, "jenis": "palm"}}, {"type": "Feature", "geometry": {"type": "Point", "coordinates": [102.40937403878414, -4.048765594002607]}, "properties": {"id": 196, "jenis": "palm"}}, {"type": "Feature", "geometry": {"type": "Point", "coordinates": [102.40937403878414, -4.048810397670101]}, "properties": {"id": 197, "jenis": "palm"}}, {"type": "Feature", "geometry": {"type": "Point", "coordinates": [102.40937403878414, -4.048855201335114]}, "properties": {"id": 198, "jenis": "palm"}}, {"type": "Feature", "geometry": {"type": "Point", "coordinates": [102.40937403878414, -4.048900004997647]}, "properties": {"id": 199, "jenis": "palm"}}, {"type": "Feature", "geometry": {"type": "Point", "coordinates": [102.40937403878414, -4.0489448086577]}, "properties": {"id": 200, "jenis": "palm"}}, {"type": "Feature", "geometry": {"type": "Point", "coordinates": [102.40937403878414, -4.048989612315274]}, "properties": {"id": 201, "jenis": "palm"}}, {"type": "Feature", "geometry": {"type": "Point", "coordinates": [102.40937403878414, -4.049034415970367]}, "properties": {"id": 202, "jenis": "palm"}}, {"type": "Feature", "geometry": {"type": "Point", "coordinates": [102.40937403878414, -4.04907921962298]}, "properties": {"id": 203, "jenis": "palm"}}, {"type": "Feature", "geometry": {"type": "Point", "coordinates": [102.40937403878414, -4.049124023273113]}, "properties": {"id": 204, "jenis": "palm"}}, {"type": "Feature", "geometry": {"type": "Point", "coordinates": [102.40941895454834, -4.047779912690404]}, "properties": {"id": 208, "jenis": "palm"}}, {"type": "Feature", "geometry": {"type": "Point", "coordinates": [102.40941895454834, -4.047824716412447]}, "properties": {"id": 209, "jenis": "palm"}}, {"type": "Feature", "geometry": {"type": "Point", "coordinates": [102.40941895454834, -4.047869520132013]}, "properties": {"id": 210, "jenis": "palm"}}, {"type": "Feature", "geometry": {"type": "Point", "coordinates": [102.40941895454834, -4.047914323849097]}, "properties": {"id": 211, "jenis": "palm"}}, {"type": "Feature", "geometry": {"type": "Point", "coordinates": [102.40941895454834, -4.047959127563703]}, "properties": {"id": 212, "jenis": "palm"}}, {"type": "Feature", "geometry": {"type": "Point", "coordinates": [102.40941895454834, -4.048003931275829]}, "properties": {"id": 213, "jenis": "palm"}}, {"type": "Feature", "geometry": {"type": "Point", "coordinates": [102.40941895454834, -4.048048734985476]}, "properties": {"id": 214, "jenis": "palm"}}, {"type": "Feature", "geometry": {"type": "Point", "coordinates": [102.40941895454834, -4.048093538692644]}, "properties": {"id": 215, "jenis": "palm"}}, {"type": "Feature", "geometry": {"type": "Point", "coordinates": [102.40941895454834, -4.048138342397333]}, "properties": {"id": 216, "jenis": "palm"}}, {"type": "Feature", "geometry": {"type": "Point", "coordinates": [102.40941895454834, -4.048183146099541]}, "properties": {"id": 217, "jenis": "palm"}}, {"type": "Feature", "geometry": {"type": "Point", "coordinates": [102.40941895454834, -4.04822794979927]}, "properties": {"id": 218, "jenis": "palm"}}, {"type": "Feature", "geometry": {"type": "Point", "coordinates": [102.40941895454834, -4.04827275349652]}, "properties": {"id": 219, "jenis": "palm"}}, {"type": "Feature", "geometry": {"type": "Point", "coordinates": [102.40941895454834, -4.04831755719129]}, "properties": {"id": 220, "jenis": "palm"}}, {"type": "Feature", "geometry": {"type": "Point", "coordinates": [102.40941895454834, -4.04836236088358]}, "properties": {"id": 221, "jenis": "palm"}}, {"type": "Feature", "geometry": {"type": "Point", "coordinates": [102.40941895454834, -4.048407164573391]}, "properties": {"id": 222, "jenis": "palm"}}, {"type": "Feature", "geometry": {"type": "Point", "coordinates": [102.40941895454834, -4.048451968260722]}, "properties": {"id": 223, "jenis": "palm"}}, {"type": "Feature", "geometry": {"type": "Point", "coordinates": [102.40941895454834, -4.048496771945573]}, "properties": {"id": 224, "jenis": "palm"}}, {"type": "Feature", "geometry": {"type": "Point", "coordinates": [102.40941895454834, -4.048541575627945]}, "properties": {"id": 225, "jenis": "palm"}}, {"type": "Feature", "geometry": {"type": "Point", "coordinates": [102.40941895454834, -4.048586379307837]}, "properties": {"id": 226, "jenis": "palm"}}, {"type": "Feature", "geometry": {"type": "Point", "coordinates": [102.40941895454834, -4.048631182985249]}, "properties": {"id": 227, "jenis": "palm"}}, {"type": "Feature", "geometry": {"type": "Point", "coordinates": [102.40941895454834, -4.048675986660182]}, "properties": {"id": 228, "jenis": "palm"}}, {"type": "Feature", "geometry": {"type": "Point", "coordinates": [102.40941895454834, -4.048720790332635]}, "properties": {"id": 229, "jenis": "palm"}}, {"type": "Feature", "geometry": {"type": "Point", "coordinates": [102.40941895454834, -4.048765594002607]}, "properties": {"id": 230, "jenis": "palm"}}, {"type": "Feature", "geometry": {"type": "Point", "coordinates": [102.40941895454834, -4.048810397670101]}, "properties": {"id": 231, "jenis": "palm"}}, {"type": "Feature", "geometry": {"type": "Point", "coordinates": [102.40941895454834, -4.048855201335114]}, "properties": {"id": 232, "jenis": "palm"}}, {"type": "Feature", "geometry": {"type": "Point", "coordinates": [102.40941895454834, -4.048900004997647]}, "properties": {"id": 233, "jenis": "palm"}}, {"type": "Feature", "geometry": {"type": "Point", "coordinates": [102.40941895454834, -4.0489448086577]}, "properties": {"id": 234, "jenis": "palm"}}, {"type": "Feature", "geometry": {"type": "Point", "coordinates": [102.40941895454834, -4.048989612315274]}, "properties": {"id": 235, "jenis": "palm"}}, {"type": "Feature", "geometry": {"type": "Point", "coordinates": [102.40941895454834, -4.049034415970367]}, "properties": {"id": 236, "jenis": "palm"}}, {"type": "Feature", "geometry": {"type": "Point", "coordinates": [102.40941895454834, -4.04907921962298]}, "properties": {"id": 237, "jenis": "palm"}}, {"type": "Feature", "geometry": {"type": "Point", "coordinates": [102.40946387031255, -4.047824716412447]}, "properties": {"id": 243, "jenis": "palm"}}, {"type": "Feature", "geometry": {"type": "Point", "coordinates": [102.40946387031255, -4.047869520132013]}, "properties": {"id": 244, "jenis": "palm"}}, {"type": "Feature", "geometry": {"type": "Point", "coordinates": [102.40946387031255, -4.047914323849097]}, "properties": {"id": 245, "jenis": "palm"}}, {"type": "Feature", "geometry": {"type": "Point", "coordinates": [102.40946387031255, -4.047959127563703]}, "properties": {"id": 246, "jenis": "palm"}}, {"type": "Feature", "geometry": {"type": "Point", "coordinates": [102.40946387031255, -4.048003931275829]}, "properties": {"id": 247, "jenis": "palm"}}, {"type": "Feature", "geometry": {"type": "Point", "coordinates": [102.40946387031255, -4.048048734985476]}, "properties": {"id": 248, "jenis": "palm"}}, {"type": "Feature", "geometry": {"type": "Point", "coordinates": [102.40946387031255, -4.048093538692644]}, "properties": {"id": 249, "jenis": "palm"}}, {"type": "Feature", "geometry": {"type": "Point", "coordinates": [102.40946387031255, -4.048138342397333]}, "properties": {"id": 250, "jenis": "palm"}}, {"type": "Feature", "geometry": {"type": "Point", "coordinates": [102.40946387031255, -4.048183146099541]}, "properties": {"id": 251, "jenis": "palm"}}, {"type": "Feature", "geometry": {"type": "Point", "coordinates": [102.40946387031255, -4.04822794979927]}, "properties": {"id": 252, "jenis": "palm"}}, {"type": "Feature", "geometry": {"type": "Point", "coordinates": [102.40946387031255, -4.04827275349652]}, "properties": {"id": 253, "jenis": "palm"}}, {"type": "Feature", "geometry": {"type": "Point", "coordinates": [102.40946387031255, -4.04831755719129]}, "properties": {"id": 254, "jenis": "palm"}}, {"type": "Feature", "geometry": {"type": "Point", "coordinates": [102.40946387031255, -4.04836236088358]}, "properties": {"id": 255, "jenis": "palm"}}, {"type": "Feature", "geometry": {"type": "Point", "coordinates": [102.40946387031255, -4.048407164573391]}, "properties": {"id": 256, "jenis": "palm"}}, {"type": "Feature", "geometry": {"type": "Point", "coordinates": [102.40946387031255, -4.048451968260722]}, "properties": {"id": 257, "jenis": "palm"}}, {"type": "Feature", "geometry": {"type": "Point", "coordinates": [102.40946387031255, -4.048496771945573]}, "properties": {"id": 258, "jenis": "palm"}}, {"type": "Feature", "geometry": {"type": "Point", "coordinates": [102.40946387031255, -4.048541575627945]}, "properties": {"id": 259, "jenis": "palm"}}, {"type": "Feature", "geometry": {"type": "Point", "coordinates": [102.40946387031255, -4.048586379307837]}, "properties": {"id": 260, "jenis": "palm"}}, {"type": "Feature", "geometry": {"type": "Point", "coordinates": [102.40946387031255, -4.048631182985249]}, "properties": {"id": 261, "jenis": "palm"}}, {"type": "Feature", "geometry": {"type": "Point", "coordinates": [102.40946387031255, -4.048675986660182]}, "properties": {"id": 262, "jenis": "palm"}}, {"type": "Feature", "geometry": {"type": "Point", "coordinates": [102.40946387031255, -4.048720790332635]}, "properties": {"id": 263, "jenis": "palm"}}, {"type": "Feature", "geometry": {"type": "Point", "coordinates": [102.40946387031255, -4.048765594002607]}, "properties": {"id": 264, "jenis": "palm"}}, {"type": "Feature", "geometry": {"type": "Point", "coordinates": [102.40946387031255, -4.048810397670101]}, "properties": {"id": 265, "jenis": "palm"}}, {"type": "Feature", "geometry": {"type": "Point", "coordinates": [102.40946387031255, -4.048855201335114]}, "properties": {"id": 266, "jenis": "palm"}}, {"type": "Feature", "geometry": {"type": "Point", "coordinates": [102.40946387031255, -4.048900004997647]}, "properties": {"id": 267, "jenis": "palm"}}, {"type": "Feature", "geometry": {"type": "Point", "coordinates": [102.40946387031255, -4.0489448086577]}, "properties": {"id": 268, "jenis": "palm"}}, {"type": "Feature", "geometry": {"type": "Point", "coordinates": [102.40946387031255, -4.048989612315274]}, "properties": {"id": 269, "jenis": "palm"}}, {"type": "Feature", "geometry": {"type": "Point", "coordinates": [102.40950878607677, -4.047914323849097]}, "properties": {"id": 279, "jenis": "palm"}}, {"type": "Feature", "geometry": {"type": "Point", "coordinates": [102.40950878607677, -4.047959127563703]}, "properties": {"id": 280, "jenis": "palm"}}, {"type": "Feature", "geometry": {"type": "Point", "coordinates": [102.40950878607677, -4.048003931275829]}, "properties": {"id": 281, "jenis": "palm"}}, {"type": "Feature", "geometry": {"type": "Point", "coordinates": [102.40950878607677, -4.048048734985476]}, "properties": {"id": 282, "jenis": "palm"}}, {"type": "Feature", "geometry": {"type": "Point", "coordinates": [102.40950878607677, -4.048093538692644]}, "properties": {"id": 283, "jenis": "palm"}}, {"type": "Feature", "geometry": {"type": "Point", "coordinates": [102.40950878607677, -4.048138342397333]}, "properties": {"id": 284, "jenis": "palm"}}, {"type": "Feature", "geometry": {"type": "Point", "coordinates": [102.40950878607677, -4.048183146099541]}, "properties": {"id": 285, "jenis": "palm"}}, {"type": "Feature", "geometry": {"type": "Point", "coordinates": [102.40950878607677, -4.04822794979927]}, "properties": {"id": 286, "jenis": "palm"}}, {"type": "Feature", "geometry": {"type": "Point", "coordinates": [102.40950878607677, -4.04827275349652]}, "properties": {"id": 287, "jenis": "palm"}}, {"type": "Feature", "geometry": {"type": "Point", "coordinates": [102.40950878607677, -4.04831755719129]}, "properties": {"id": 288, "jenis": "palm"}}, {"type": "Feature", "geometry": {"type": "Point", "coordinates": [102.40950878607677, -4.04836236088358]}, "properties": {"id": 289, "jenis": "palm"}}, {"type": "Feature", "geometry": {"type": "Point", "coordinates": [102.40950878607677, -4.048407164573391]}, "properties": {"id": 290, "jenis": "palm"}}, {"type": "Feature", "geometry": {"type": "Point", "coordinates": [102.40950878607677, -4.048451968260722]}, "properties": {"id": 291, "jenis": "palm"}}, {"type": "Feature", "geometry": {"type": "Point", "coordinates": [102.40950878607677, -4.048496771945573]}, "properties": {"id": 292, "jenis": "palm"}}, {"type": "Feature", "geometry": {"type": "Point", "coordinates": [102.40950878607677, -4.048541575627945]}, "properties": {"id": 293, "jenis": "palm"}}, {"type": "Feature", "geometry": {"type": "Point", "coordinates": [102.40950878607677, -4.048586379307837]}, "properties": {"id": 294, "jenis": "palm"}}, {"type": "Feature", "geometry": {"type": "Point", "coordinates": [102.40950878607677, -4.048631182985249]}, "properties": {"id": 295, "jenis": "palm"}}, {"type": "Feature", "geometry": {"type": "Point", "coordinates": [102.40950878607677, -4.048675986660182]}, "properties": {"id": 296, "jenis": "palm"}}, {"type": "Feature", "geometry": {"type": "Point", "coordinates": [102.40950878607677, -4.048720790332635]}, "properties": {"id": 297, "jenis": "palm"}}, {"type": "Feature", "geometry": {"type": "Point", "coordinates": [102.40950878607677, -4.048765594002607]}, "properties": {"id": 298, "jenis": "palm"}}, {"type": "Feature", "geometry": {"type": "Point", "coordinates": [102.40950878607677, -4.048810397670101]}, "properties": {"id": 299, "jenis": "palm"}}, {"type": "Feature", "geometry": {"type": "Point", "coordinates": [102.40950878607677, -4.048855201335114]}, "properties": {"id": 300, "jenis": "palm"}}, {"type": "Feature", "geometry": {"type": "Point", "coordinates": [102.40950878607677, -4.048900004997647]}, "properties": {"id": 301, "jenis": "palm"}}, {"type": "Feature", "geometry": {"type": "Point", "coordinates": [102.40950878607677, -4.0489448086577]}, "properties": {"id": 302, "jenis": "palm"}}, {"type": "Feature", "geometry": {"type": "Point", "coordinates": [102.40955370184098, -4.048048734985476]}, "properties": {"id": 316, "jenis": "palm"}}, {"type": "Feature", "geometry": {"type": "Point", "coordinates": [102.40955370184098, -4.048093538692644]}, "properties": {"id": 317, "jenis": "palm"}}, {"type": "Feature", "geometry": {"type": "Point", "coordinates": [102.40955370184098, -4.048138342397333]}, "properties": {"id": 318, "jenis": "palm"}}, {"type": "Feature", "geometry": {"type": "Point", "coordinates": [102.40955370184098, -4.048183146099541]}, "properties": {"id": 319, "jenis": "palm"}}, {"type": "Feature", "geometry": {"type": "Point", "coordinates": [102.40955370184098, -4.04822794979927]}, "properties": {"id": 320, "jenis": "palm"}}, {"type": "Feature", "geometry": {"type": "Point", "coordinates": [102.40955370184098, -4.04827275349652]}, "properties": {"id": 321, "jenis": "palm"}}, {"type": "Feature", "geometry": {"type": "Point", "coordinates": [102.40955370184098, -4.04831755719129]}, "properties": {"id": 322, "jenis": "palm"}}, {"type": "Feature", "geometry": {"type": "Point", "coordinates": [102.40955370184098, -4.04836236088358]}, "properties": {"id": 323, "jenis": "palm"}}, {"type": "Feature", "geometry": {"type": "Point", "coordinates": [102.40955370184098, -4.048407164573391]}, "properties": {"id": 324, "jenis": "palm"}}, {"type": "Feature", "geometry": {"type": "Point", "coordinates": [102.40955370184098, -4.048451968260722]}, "properties": {"id": 325, "jenis": "palm"}}, {"type": "Feature", "geometry": {"type": "Point", "coordinates": [102.40955370184098, -4.048496771945573]}, "properties": {"id": 326, "jenis": "palm"}}, {"type": "Feature", "geometry": {"type": "Point", "coordinates": [102.40955370184098, -4.048541575627945]}, "properties": {"id": 327, "jenis": "palm"}}, {"type": "Feature", "geometry": {"type": "Point", "coordinates": [102.40955370184098, -4.048586379307837]}, "properties": {"id": 328, "jenis": "palm"}}, {"type": "Feature", "geometry": {"type": "Point", "coordinates": [102.40955370184098, -4.048631182985249]}, "properties": {"id": 329, "jenis": "palm"}}, {"type": "Feature", "geometry": {"type": "Point", "coordinates": [102.40955370184098, -4.048675986660182]}, "properties": {"id": 330, "jenis": "palm"}}, {"type": "Feature", "geometry": {"type": "Point", "coordinates": [102.40955370184098, -4.048720790332635]}, "properties": {"id": 331, "jenis": "palm"}}, {"type": "Feature", "geometry": {"type": "Point", "coordinates": [102.40955370184098, -4.048765594002607]}, "properties": {"id": 332, "jenis": "palm"}}, {"type": "Feature", "geometry": {"type": "Point", "coordinates": [102.40955370184098, -4.048810397670101]}, "properties": {"id": 333, "jenis": "palm"}}, {"type": "Feature", "geometry": {"type": "Point", "coordinates": [102.40955370184098, -4.048855201335114]}, "properties": {"id": 334, "jenis": "palm"}}, {"type": "Feature", "geometry": {"type": "Point", "coordinates": [102.40959861760517, -4.048183146099541]}, "properties": {"id": 353, "jenis": "palm"}}, {"type": "Feature", "geometry": {"type": "Point", "coordinates": [102.40959861760517, -4.04822794979927]}, "properties": {"id": 354, "jenis": "palm"}}, {"type": "Feature", "geometry": {"type": "Point", "coordinates": [102.40959861760517, -4.04827275349652]}, "properties": {"id": 355, "jenis": "palm"}}, {"type": "Feature", "geometry": {"type": "Point", "coordinates": [102.40959861760517, -4.04831755719129]}, "properties": {"id": 356, "jenis": "palm"}}, {"type": "Feature", "geometry": {"type": "Point", "coordinates": [102.40959861760517, -4.04836236088358]}, "properties": {"id": 357, "jenis": "palm"}}, {"type": "Feature", "geometry": {"type": "Point", "coordinates": [102.40959861760517, -4.048407164573391]}, "properties": {"id": 358, "jenis": "palm"}}, {"type": "Feature", "geometry": {"type": "Point", "coordinates": [102.40959861760517, -4.048451968260722]}, "properties": {"id": 359, "jenis": "palm"}}, {"type": "Feature", "geometry": {"type": "Point", "coordinates": [102.40959861760517, -4.048496771945573]}, "properties": {"id": 360, "jenis": "palm"}}, {"type": "Feature", "geometry": {"type": "Point", "coordinates": [102.40959861760517, -4.048541575627945]}, "properties": {"id": 361, "jenis": "palm"}}, {"type": "Feature", "geometry": {"type": "Point", "coordinates": [102.40959861760517, -4.048586379307837]}, "properties": {"id": 362, "jenis": "palm"}}, {"type": "Feature", "geometry": {"type": "Point", "coordinates": [102.40959861760517, -4.048631182985249]}, "properties": {"id": 363, "jenis": "palm"}}, {"type": "Feature", "geometry": {"type": "Point", "coordinates": [102.40959861760517, -4.048675986660182]}, "properties": {"id": 364, "jenis": "palm"}}, {"type": "Feature", "geometry": {"type": "Point", "coordinates": [102.40959861760517, -4.048720790332635]}, "properties": {"id": 365, "jenis": "palm"}}, {"type": "Feature", "geometry": {"type": "Point", "coordinates": [102.40959861760517, -4.048765594002607]}, "properties": {"id": 366, "jenis": "palm"}}, {"type": "Feature", "geometry": {"type": "Point", "coordinates": [102.40964353336938, -4.04827275349652]}, "properties": {"id": 389, "jenis": "palm"}}, {"type": "Feature", "geometry": {"type": "Point", "coordinates": [102.40964353336938, -4.04831755719129]}, "properties": {"id": 390, "jenis": "palm"}}, {"type": "Feature", "geometry": {"type": "Point", "coordinates": [102.40964353336938, -4.04836236088358]}, "properties": {"id": 391, "jenis": "palm"}}, {"type": "Feature", "geometry": {"type": "Point", "coordinates": [102.40964353336938, -4.048407164573391]}, "properties": {"id": 392, "jenis": "palm"}}, {"type": "Feature", "geometry": {"type": "Point", "coordinates": [102.40964353336938, -4.048451968260722]}, "properties": {"id": 393, "jenis": "palm"}}, {"type": "Feature", "geometry": {"type": "Point", "coordinates": [102.40964353336938, -4.048496771945573]}, "properties": {"id": 394, "jenis": "palm"}}, {"type": "Feature", "geometry": {"type": "Point", "coordinates": [102.40964353336938, -4.048541575627945]}, "properties": {"id": 395, "jenis": "palm"}}, {"type": "Feature", "geometry": {"type": "Point", "coordinates": [102.40964353336938, -4.048586379307837]}, "properties": {"id": 396, "jenis": "palm"}}, {"type": "Feature", "geometry": {"type": "Point", "coordinates": [102.40964353336938, -4.048631182985249]}, "properties": {"id": 397, "jenis": "palm"}}, {"type": "Feature", "geometry": {"type": "Point", "coordinates": [102.40964353336938, -4.048675986660182]}, "properties": {"id": 398, "jenis": "palm"}}, {"type": "Feature", "geometry": {"type": "Point", "coordinates": [102.40964353336938, -4.048720790332635]}, "properties": {"id": 399, "jenis": "palm"}}, {"type": "Feature", "geometry": {"type": "Point", "coordinates": [102.40964353336938, -4.048765594002607]}, "properties": {"id": 400, "jenis": "palm"}}, {"type": "Feature", "geometry": {"type": "Point", "coordinates": [102.40968844913358, -4.04831755719129]}, "properties": {"id": 424, "jenis": "palm"}}, {"type": "Feature", "geometry": {"type": "Point", "coordinates": [102.40968844913358, -4.04836236088358]}, "properties": {"id": 425, "jenis": "palm"}}, {"type": "Feature", "geometry": {"type": "Point", "coordinates": [102.40968844913358, -4.048407164573391]}, "properties": {"id": 426, "jenis": "palm"}}, {"type": "Feature", "geometry": {"type": "Point", "coordinates": [102.40968844913358, -4.048451968260722]}, "properties": {"id": 427, "jenis": "palm"}}, {"type": "Feature", "geometry": {"type": "Point", "coordinates": [102.40968844913358, -4.048496771945573]}, "properties": {"id": 428, "jenis": "palm"}}, {"type": "Feature", "geometry": {"type": "Point", "coordinates": [102.40968844913358, -4.048541575627945]}, "properties": {"id": 429, "jenis": "palm"}}, {"type": "Feature", "geometry": {"type": "Point", "coordinates": [102.40968844913358, -4.048586379307837]}, "properties": {"id": 430, "jenis": "palm"}}, {"type": "Feature", "geometry": {"type": "Point", "coordinates": [102.40968844913358, -4.048631182985249]}, "properties": {"id": 431, "jenis": "palm"}}, {"type": "Feature", "geometry": {"type": "Point", "coordinates": [102.40968844913358, -4.048675986660182]}, "properties": {"id": 432, "jenis": "palm"}}, {"type": "Feature", "geometry": {"type": "Point", "coordinates": [102.40968844913358, -4.048720790332635]}, "properties": {"id": 433, "jenis": "palm"}}, {"type": "Feature", "geometry": {"type": "Point", "coordinates": [102.40968844913358, -4.048765594002607]}, "properties": {"id": 434, "jenis": "palm"}}, {"type": "Feature", "geometry": {"type": "Point", "coordinates": [102.40973336489779, -4.04836236088358]}, "properties": {"id": 459, "jenis": "palm"}}, {"type": "Feature", "geometry": {"type": "Point", "coordinates": [102.40973336489779, -4.048407164573391]}, "properties": {"id": 460, "jenis": "palm"}}, {"type": "Feature", "geometry": {"type": "Point", "coordinates": [102.40973336489779, -4.048451968260722]}, "properties": {"id": 461, "jenis": "palm"}}, {"type": "Feature", "geometry": {"type": "Point", "coordinates": [102.40973336489779, -4.048496771945573]}, "properties": {"id": 462, "jenis": "palm"}}, {"type": "Feature", "geometry": {"type": "Point", "coordinates": [102.40973336489779, -4.048541575627945]}, "properties": {"id": 463, "jenis": "palm"}}, {"type": "Feature", "geometry": {"type": "Point", "coordinates": [102.40973336489779, -4.048586379307837]}, "properties": {"id": 464, "jenis": "palm"}}, {"type": "Feature", "geometry": {"type": "Point", "coordinates": [102.40973336489779, -4.048631182985249]}, "properties": {"id": 465, "jenis": "palm"}}, {"type": "Feature", "geometry": {"type": "Point", "coordinates": [102.40973336489779, -4.048675986660182]}, "properties": {"id": 466, "jenis": "palm"}}, {"type": "Feature", "geometry": {"type": "Point", "coordinates": [102.40973336489779, -4.048720790332635]}, "properties": {"id": 467, "jenis": "palm"}}, {"type": "Feature", "geometry": {"type": "Point", "coordinates": [102.40973336489779, -4.048765594002607]}, "properties": {"id": 468, "jenis": "palm"}}, {"type": "Feature", "geometry": {"type": "Point", "coordinates": [102.409778280662, -4.048407164573391]}, "properties": {"id": 494, "jenis": "palm"}}, {"type": "Feature", "geometry": {"type": "Point", "coordinates": [102.409778280662, -4.048451968260722]}, "properties": {"id": 495, "jenis": "palm"}}, {"type": "Feature", "geometry": {"type": "Point", "coordinates": [102.409778280662, -4.048496771945573]}, "properties": {"id": 496, "jenis": "palm"}}, {"type": "Feature", "geometry": {"type": "Point", "coordinates": [102.409778280662, -4.048541575627945]}, "properties": {"id": 497, "jenis": "palm"}}, {"type": "Feature", "geometry": {"type": "Point", "coordinates": [102.409778280662, -4.048586379307837]}, "properties": {"id": 498, "jenis": "palm"}}, {"type": "Feature", "geometry": {"type": "Point", "coordinates": [102.409778280662, -4.048631182985249]}, "properties": {"id": 499, "jenis": "palm"}}, {"type": "Feature", "geometry": {"type": "Point", "coordinates": [102.409778280662, -4.048675986660182]}, "properties": {"id": 500, "jenis": "palm"}}, {"type": "Feature", "geometry": {"type": "Point", "coordinates": [102.409778280662, -4.048720790332635]}, "properties": {"id": 501, "jenis": "palm"}}, {"type": "Feature", "geometry": {"type": "Point", "coordinates": [102.409778280662, -4.048765594002607]}, "properties": {"id": 502, "jenis": "palm"}}, {"type": "Feature", "geometry": {"type": "Point", "coordinates": [102.4098231964262, -4.048451968260722]}, "properties": {"id": 529, "jenis": "palm"}}, {"type": "Feature", "geometry": {"type": "Point", "coordinates": [102.4098231964262, -4.048496771945573]}, "properties": {"id": 530, "jenis": "palm"}}, {"type": "Feature", "geometry": {"type": "Point", "coordinates": [102.4098231964262, -4.048541575627945]}, "properties": {"id": 531, "jenis": "palm"}}, {"type": "Feature", "geometry": {"type": "Point", "coordinates": [102.4098231964262, -4.048586379307837]}, "properties": {"id": 532, "jenis": "palm"}}, {"type": "Feature", "geometry": {"type": "Point", "coordinates": [102.4098231964262, -4.048631182985249]}, "properties": {"id": 533, "jenis": "palm"}}, {"type": "Feature", "geometry": {"type": "Point", "coordinates": [102.4098231964262, -4.048675986660182]}, "properties": {"id": 534, "jenis": "palm"}}, {"type": "Feature", "geometry": {"type": "Point", "coordinates": [102.4098231964262, -4.048720790332635]}, "properties": {"id": 535, "jenis": "palm"}}, {"type": "Feature", "geometry": {"type": "Point", "coordinates": [102.4098231964262, -4.048765594002607]}, "properties": {"id": 536, "jenis": "palm"}}, {"type": "Feature", "geometry": {"type": "Point", "coordinates": [102.4098231964262, -4.048810397670101]}, "properties": {"id": 537, "jenis": "palm"}}, {"type": "Feature", "geometry": {"type": "Point", "coordinates": [102.40986811219041, -4.048496771945573]}, "properties": {"id": 564, "jenis": "palm"}}, {"type": "Feature", "geometry": {"type": "Point", "coordinates": [102.40986811219041, -4.048541575627945]}, "properties": {"id": 565, "jenis": "palm"}}, {"type": "Feature", "geometry": {"type": "Point", "coordinates": [102.40986811219041, -4.048586379307837]}, "properties": {"id": 566, "jenis": "palm"}}, {"type": "Feature", "geometry": {"type": "Point", "coordinates": [102.40986811219041, -4.048631182985249]}, "properties": {"id": 567, "jenis": "palm"}}, {"type": "Feature", "geometry": {"type": "Point", "coordinates": [102.40986811219041, -4.048675986660182]}, "properties": {"id": 568, "jenis": "palm"}}, {"type": "Feature", "geometry": {"type": "Point", "coordinates": [102.40986811219041, -4.048720790332635]}, "properties": {"id": 569, "jenis": "palm"}}, {"type": "Feature", "geometry": {"type": "Point", "coordinates": [102.40986811219041, -4.048765594002607]}, "properties": {"id": 570, "jenis": "palm"}}, {"type": "Feature", "geometry": {"type": "Point", "coordinates": [102.40986811219041, -4.048810397670101]}, "properties": {"id": 571, "jenis": "palm"}}, {"type": "Feature", "geometry": {"type": "Point", "coordinates": [102.40991302795462, -4.048496771945573]}, "properties": {"id": 598, "jenis": "palm"}}, {"type": "Feature", "geometry": {"type": "Point", "coordinates": [102.40991302795462, -4.048541575627945]}, "properties": {"id": 599, "jenis": "palm"}}, {"type": "Feature", "geometry": {"type": "Point", "coordinates": [102.40991302795462, -4.048586379307837]}, "properties": {"id": 600, "jenis": "palm"}}, {"type": "Feature", "geometry": {"type": "Point", "coordinates": [102.40991302795462, -4.048631182985249]}, "properties": {"id": 601, "jenis": "palm"}}, {"type": "Feature", "geometry": {"type": "Point", "coordinates": [102.40991302795462, -4.048675986660182]}, "properties": {"id": 602, "jenis": "palm"}}, {"type": "Feature", "geometry": {"type": "Point", "coordinates": [102.40995794371882, -4.048496771945573]}, "properties": {"id": 632, "jenis": "palm"}}, {"type": "Feature", "geometry": {"type": "Point", "coordinates": [102.40995794371882, -4.048541575627945]}, "properties": {"id": 633, "jenis": "palm"}}, {"type": "Feature", "geometry": {"type": "Point", "coordinates": [102.40995794371882, -4.048586379307837]}, "properties": {"id": 634, "jenis": "palm"}}, {"type": "Feature", "geometry": {"type": "Point", "coordinates": [102.40995794371882, -4.048631182985249]}, "properties": {"id": 635, "jenis": "palm"}}, {"type": "Feature", "geometry": {"type": "Point", "coordinates": [102.41000285948301, -4.048541575627945]}, "properties": {"id": 667, "jenis": "palm"}}, {"type": "Feature", "geometry": {"type": "Point", "coordinates": [102.41000285948301, -4.048586379307837]}, "properties": {"id": 668, "jenis": "palm"}}, {"type": "Feature", "geometry": {"type": "Point", "coordinates": [102.41000285948301, -4.048631182985249]}, "properties": {"id": 669, "jenis": "palm"}}, {"type": "Feature", "geometry": {"type": "Point", "coordinates": [102.41004777524724, -4.048541575627945]}, "properties": {"id": 701, "jenis": "palm"}}, {"type": "Feature", "geometry": {"type": "Point", "coordinates": [102.41004777524724, -4.048586379307837]}, "properties": {"id": 702, "jenis": "palm"}}, {"type": "Feature", "geometry": {"type": "Point", "coordinates": [102.41004777524724, -4.048631182985249]}, "properties": {"id": 703, "jenis": "palm"}}, {"type": "Feature", "geometry": {"type": "Point", "coordinates": [102.41009269101144, -4.048586379307837]}, "properties": {"id": 736, "jenis": "palm"}}, {"type": "Feature", "geometry": {"type": "Point", "coordinates": [102.41009269101144, -4.048631182985249]}, "properties": {"id": 737, "jenis": "palm"}}, {"type": "Feature", "geometry": {"type": "Point", "coordinates": [102.41009269101144, -4.048675986660182]}, "properties": {"id": 738, "jenis": "palm"}}, {"type": "Feature", "geometry": {"type": "Point", "coordinates": [102.41013760677565, -4.048586379307837]}, "properties": {"id": 770, "jenis": "palm"}}, {"type": "Feature", "geometry": {"type": "Point", "coordinates": [102.41013760677565, -4.048631182985249]}, "properties": {"id": 771, "jenis": "palm"}}, {"type": "Feature", "geometry": {"type": "Point", "coordinates": [102.41013760677565, -4.048675986660182]}, "properties": {"id": 772, "jenis": "palm"}}]}