{"type": "FeatureCollection", "name": "polygon-block-real", "features": [{"type": "Feature", "properties": {"id": 1}, "geometry": {"type": "MultiPolygon", "coordinates": [[[[102.40936280581413, -4.047646170434184], [102.40950713251578, -4.04788291565132], [102.40962259387713, -4.048222037057941], [102.40972201893825, -4.048346808105757], [102.40978616413898, -4.048413992508158], [102.4099369053607, -4.048484376161841], [102.41002991590176, -4.048525966499766], [102.41017424260339, -4.048567556835572], [102.41014537726308, -4.04870192559816], [102.40992728358057, -4.048641139732127], [102.4099048327603, -4.048749914436536], [102.40985351659972, -4.048839493593877], [102.40975088427858, -4.048785106249534], [102.40959372853676, -4.048810700294378], [102.40937563485427, -4.049156219820755], [102.40922489363257, -4.048993057840566], [102.4093050751335, -4.048884283168847], [102.40915112665172, -4.048631541963394], [102.4093050751335, -4.048260428151619], [102.40932431869369, -4.047828528242691], [102.40936280581413, -4.047646170434184]]]]}}]}