{
"type": "FeatureCollection",
"name": "polygon-block-real",
"crs": { "type": "name", "properties": { "name": "urn:ogc:def:crs:OGC:1.3:CRS84" } },
"features": [
{ "type": "Feature", "properties": { "id": 1 }, "geometry": { "type": "MultiPolygon", "coordinates": [ [ [ [ 102.409362805814126, -4.047646170434184 ], [ 102.409507132515785, -4.04788291565132 ], [ 102.409622593877131, -4.048222037057941 ], [ 102.409722018938254, -4.048346808105757 ], [ 102.409786164138978, -4.048413992508158 ], [ 102.409936905360695, -4.048484376161841 ], [ 102.41002991590176, -4.048525966499766 ], [ 102.410174242603389, -4.048567556835572 ], [ 102.410145377263078, -4.04870192559816 ], [ 102.409927283580572, -4.048641139732127 ], [ 102.409904832760304, -4.048749914436536 ], [ 102.409853516599725, -4.048839493593877 ], [ 102.40975088427858, -4.048785106249534 ], [ 102.409593728536763, -4.048810700294378 ], [ 102.409375634854271, -4.049156219820755 ], [ 102.409224893632569, -4.048993057840566 ], [ 102.409305075133503, -4.048884283168847 ], [ 102.409151126651722, -4.048631541963394 ], [ 102.409305075133503, -4.048260428151619 ], [ 102.409324318693692, -4.047828528242691 ], [ 102.409362805814126, -4.047646170434184 ] ] ] ] } }
]
}
